NAVSTAR 84 (USA 545)    
1 64202U 25116A   25331.65075464 -.00000060  00000+0  00000+0 0  9995
2 64202  55.0944  39.2516 0004863 304.4210  50.9436  2.00559190  3825
COSMOS 2596 [GLONASS-K1]
1 65590U 25206B   25334.08977572 -.00000021  00000+0  00000+0 0  9994
2 65590  64.7512 321.9152 0014079 304.6953 108.4937  2.13100321  1664
